[{"OBJECT_NAME":"STARLINK-3682","OBJECT_ID":"2022-029BE","EPOCH":"2026-03-09T09:13:33.119904","MEAN_MOTION":15.08848073,"ECCENTRICITY":0.00014354,"INCLINATION":53.217,"RA_OF_ASC_NODE":70.4893,"ARG_OF_PERICENTER":76.5583,"MEAN_ANOMALY":283.5569,"EPHEMERIS_TYPE":0,"CLASSIFICATION_TYPE":"U","NORAD_CAT_ID":52140,"ELEMENT_SET_NO":999,"REV_AT_EPOCH":22089,"BSTAR":5.2078287e-5,"MEAN_MOTION_DOT":5.41e-6,"MEAN_MOTION_DDOT":0},{"OBJECT_NAME":"CZ-6A R\/B","OBJECT_ID":"2022-031C","EPOCH":"2026-03-09T19:50:55.360896","MEAN_MOTION":15.07476837,"ECCENTRICITY":0.00174842,"INCLINATION":97.8104,"RA_OF_ASC_NODE":273.2347,"ARG_OF_PERICENTER":181.6412,"MEAN_ANOMALY":178.4761,"EPHEMERIS_TYPE":0,"CLASSIFICATION_TYPE":"U","NORAD_CAT_ID":52152,"ELEMENT_SET_NO":999,"REV_AT_EPOCH":21633,"BSTAR":0.00020233161,"MEAN_MOTION_DOT":3.012e-5,"MEAN_MOTION_DDOT":0}]
